CCSDS_OMM_VERS = 2.0
CREATION_DATE  = 
ORIGINATOR     = 

OBJECT_NAME    = UNKNOWN
OBJECT_ID      = 
CENTER_NAME    = EARTH
REF_FRAME      = TEME
TIME_SYSTEM    = UTC
MEAN_ELEMENT_THEORY = SGP/SGP4

EPOCH          = 2025-12-06T11:38:21.421824
MEAN_MOTION    = 13.12038507
ECCENTRICITY   = .06045701
INCLINATION    = 72.7160
RA_OF_ASC_NODE = 62.8790
ARG_OF_PERICENTER = 351.6941
MEAN_ANOMALY   = 7.4462

EPHEMERIS_TYPE = 0
CLASSIFICATION_TYPE = U
NORAD_CAT_ID   = 270199
ELEMENT_SET_NO = 999
REV_AT_EPOCH   = 28629
BSTAR          = .42253964E-2
MEAN_MOTION_DOT = .3764E-4
MEAN_MOTION_DDOT = 0

CCSDS_OMM_VERS = 2.0
CREATION_DATE  = 
ORIGINATOR     = 

OBJECT_NAME    = UNKNOWN
OBJECT_ID      = 
CENTER_NAME    = EARTH
REF_FRAME      = TEME
TIME_SYSTEM    = UTC
MEAN_ELEMENT_THEORY = SGP/SGP4

EPOCH          = 2025-12-20T07:12:20.521728
MEAN_MOTION    = 12.95715446
ECCENTRICITY   = .0030378
INCLINATION    = 90.2457
RA_OF_ASC_NODE = 9.8597
ARG_OF_PERICENTER = 280.9357
MEAN_ANOMALY   = 78.8345

EPHEMERIS_TYPE = 0
CLASSIFICATION_TYPE = U
NORAD_CAT_ID   = 270200
ELEMENT_SET_NO = 999
REV_AT_EPOCH   = 28499
BSTAR          = -.15857078E-3
MEAN_MOTION_DOT = -.38E-6
MEAN_MOTION_DDOT = 0

CCSDS_OMM_VERS = 2.0
CREATION_DATE  = 
ORIGINATOR     = 

OBJECT_NAME    = UNKNOWN
OBJECT_ID      = 
CENTER_NAME    = EARTH
REF_FRAME      = TEME
TIME_SYSTEM    = UTC
MEAN_ELEMENT_THEORY = SGP/SGP4

EPOCH          = 2025-12-20T22:26:45.461760
MEAN_MOTION    = 14.02432043
ECCENTRICITY   = .00287755
INCLINATION    = 82.5301
RA_OF_ASC_NODE = 64.3655
ARG_OF_PERICENTER = 251.1873
MEAN_ANOMALY   = 108.6175

EPHEMERIS_TYPE = 0
CLASSIFICATION_TYPE = U
NORAD_CAT_ID   = 270202
ELEMENT_SET_NO = 999
REV_AT_EPOCH   = 30879
BSTAR          = .11123568E-2
MEAN_MOTION_DOT = .1729E-4
MEAN_MOTION_DDOT = 0

CCSDS_OMM_VERS = 2.0
CREATION_DATE  = 
ORIGINATOR     = 

OBJECT_NAME    = UNKNOWN
OBJECT_ID      = 
CENTER_NAME    = EARTH
REF_FRAME      = TEME
TIME_SYSTEM    = UTC
MEAN_ELEMENT_THEORY = SGP/SGP4

EPOCH          = 2025-12-20T19:18:42.282720
MEAN_MOTION    = 13.00584336
ECCENTRICITY   = .00349922
INCLINATION    = 90.2447
RA_OF_ASC_NODE = 8.4250
ARG_OF_PERICENTER = 16.6930
MEAN_ANOMALY   = 343.5335

EPHEMERIS_TYPE = 0
CLASSIFICATION_TYPE = U
NORAD_CAT_ID   = 270203
ELEMENT_SET_NO = 999
REV_AT_EPOCH   = 28731
BSTAR          = .25815484E-2
MEAN_MOTION_DOT = .793E-5
MEAN_MOTION_DDOT = 0

CCSDS_OMM_VERS = 2.0
CREATION_DATE  = 
ORIGINATOR     = 

OBJECT_NAME    = UNKNOWN
OBJECT_ID      = 
CENTER_NAME    = EARTH
REF_FRAME      = TEME
TIME_SYSTEM    = UTC
MEAN_ELEMENT_THEORY = SGP/SGP4

EPOCH          = 2025-12-26T16:57:18.969984
MEAN_MOTION    = 13.86912502
ECCENTRICITY   = .00630512
INCLINATION    = 89.9304
RA_OF_ASC_NODE = 346.4482
ARG_OF_PERICENTER = 159.0533
MEAN_ANOMALY   = 201.3243

EPHEMERIS_TYPE = 0
CLASSIFICATION_TYPE = U
NORAD_CAT_ID   = 270204
ELEMENT_SET_NO = 999
REV_AT_EPOCH   = 30575
BSTAR          = .24323654E-2
MEAN_MOTION_DOT = .2897E-4
MEAN_MOTION_DDOT = 0

CCSDS_OMM_VERS = 2.0
CREATION_DATE  = 
ORIGINATOR     = 

OBJECT_NAME    = UNKNOWN
OBJECT_ID      = 
CENTER_NAME    = EARTH
REF_FRAME      = TEME
TIME_SYSTEM    = UTC
MEAN_ELEMENT_THEORY = SGP/SGP4

EPOCH          = 2025-12-21T01:22:40.618848
MEAN_MOTION    = 12.25212113
ECCENTRICITY   = .0108646
INCLINATION    = 47.2240
RA_OF_ASC_NODE = 262.0795
ARG_OF_PERICENTER = 320.6782
MEAN_ANOMALY   = 38.6159

EPHEMERIS_TYPE = 0
CLASSIFICATION_TYPE = U
NORAD_CAT_ID   = 270205
ELEMENT_SET_NO = 999
REV_AT_EPOCH   = 3220
BSTAR          = .40017086E-2
MEAN_MOTION_DOT = .365E-5
MEAN_MOTION_DDOT = 0

CCSDS_OMM_VERS = 2.0
CREATION_DATE  = 
ORIGINATOR     = 

OBJECT_NAME    = UNKNOWN
OBJECT_ID      = 
CENTER_NAME    = EARTH
REF_FRAME      = TEME
TIME_SYSTEM    = UTC
MEAN_ELEMENT_THEORY = SGP/SGP4

EPOCH          = 2025-12-17T09:02:27.397536
MEAN_MOTION    = 14.32026178
ECCENTRICITY   = .00520859
INCLINATION    = 98.5255
RA_OF_ASC_NODE = 32.1533
ARG_OF_PERICENTER = 96.6466
MEAN_ANOMALY   = 264.0650

EPHEMERIS_TYPE = 0
CLASSIFICATION_TYPE = U
NORAD_CAT_ID   = 270207
ELEMENT_SET_NO = 999
REV_AT_EPOCH   = 31408
BSTAR          = .5496066E-3
MEAN_MOTION_DOT = .1455E-4
MEAN_MOTION_DDOT = 0

CCSDS_OMM_VERS = 2.0
CREATION_DATE  = 
ORIGINATOR     = 

OBJECT_NAME    = UNKNOWN
OBJECT_ID      = 
CENTER_NAME    = EARTH
REF_FRAME      = TEME
TIME_SYSTEM    = UTC
MEAN_ELEMENT_THEORY = SGP/SGP4

EPOCH          = 2025-12-26T22:12:11.420352
MEAN_MOTION    = 14.37152644
ECCENTRICITY   = .00023614
INCLINATION    = 86.3947
RA_OF_ASC_NODE = 64.0737
ARG_OF_PERICENTER = 99.0206
MEAN_ANOMALY   = 261.1258

EPHEMERIS_TYPE = 0
CLASSIFICATION_TYPE = U
NORAD_CAT_ID   = 270209
ELEMENT_SET_NO = 999
REV_AT_EPOCH   = 31580
BSTAR          = .22815474E-3
MEAN_MOTION_DOT = .698E-5
MEAN_MOTION_DDOT = 0

CCSDS_OMM_VERS = 2.0
CREATION_DATE  = 
ORIGINATOR     = 

OBJECT_NAME    = UNKNOWN
OBJECT_ID      = 
CENTER_NAME    = EARTH
REF_FRAME      = TEME
TIME_SYSTEM    = UTC
MEAN_ELEMENT_THEORY = SGP/SGP4

EPOCH          = 2025-12-26T20:03:55.514016
MEAN_MOTION    = 14.37207115
ECCENTRICITY   = .00030136
INCLINATION    = 86.3948
RA_OF_ASC_NODE = 32.4153
ARG_OF_PERICENTER = 91.3766
MEAN_ANOMALY   = 268.7777

EPHEMERIS_TYPE = 0
CLASSIFICATION_TYPE = U
NORAD_CAT_ID   = 270210
ELEMENT_SET_NO = 999
REV_AT_EPOCH   = 31582
BSTAR          = .19197997E-3
MEAN_MOTION_DOT = .591E-5
MEAN_MOTION_DDOT = 0

CCSDS_OMM_VERS = 2.0
CREATION_DATE  = 
ORIGINATOR     = 

OBJECT_NAME    = UNKNOWN
OBJECT_ID      = 
CENTER_NAME    = EARTH
REF_FRAME      = TEME
TIME_SYSTEM    = UTC
MEAN_ELEMENT_THEORY = SGP/SGP4

EPOCH          = 2025-12-11T14:51:29.411424
MEAN_MOTION    = 12.88819109
ECCENTRICITY   = .02143629
INCLINATION    = 82.4873
RA_OF_ASC_NODE = 292.5029
ARG_OF_PERICENTER = 4.9807
MEAN_ANOMALY   = 355.3362

EPHEMERIS_TYPE = 0
CLASSIFICATION_TYPE = U
NORAD_CAT_ID   = 270211
ELEMENT_SET_NO = 999
REV_AT_EPOCH   = 28361
BSTAR          = .23244962E-3
MEAN_MOTION_DOT = .77E-6
MEAN_MOTION_DDOT = 0

CCSDS_OMM_VERS = 2.0
CREATION_DATE  = 
ORIGINATOR     = 

OBJECT_NAME    = UNKNOWN
OBJECT_ID      = 
CENTER_NAME    = EARTH
REF_FRAME      = TEME
TIME_SYSTEM    = UTC
MEAN_ELEMENT_THEORY = SGP/SGP4

EPOCH          = 2025-12-26T11:58:50.051424
MEAN_MOTION    = 11.82193738
ECCENTRICITY   = .10301444
INCLINATION    = 83.2386
RA_OF_ASC_NODE = 273.1639
ARG_OF_PERICENTER = 76.9172
MEAN_ANOMALY   = 294.4656

EPHEMERIS_TYPE = 0
CLASSIFICATION_TYPE = U
NORAD_CAT_ID   = 270212
ELEMENT_SET_NO = 999
REV_AT_EPOCH   = 26095
BSTAR          = .14533846E-1
MEAN_MOTION_DOT = .4085E-4
MEAN_MOTION_DDOT = 0

CCSDS_OMM_VERS = 2.0
CREATION_DATE  = 
ORIGINATOR     = 

OBJECT_NAME    = UNKNOWN
OBJECT_ID      = 
CENTER_NAME    = EARTH
REF_FRAME      = TEME
TIME_SYSTEM    = UTC
MEAN_ELEMENT_THEORY = SGP/SGP4

EPOCH          = 2025-12-28T19:27:24.041088
MEAN_MOTION    = 14.40827983
ECCENTRICITY   = .01617085
INCLINATION    = 97.0596
RA_OF_ASC_NODE = 31.2933
ARG_OF_PERICENTER = 177.1037
MEAN_ANOMALY   = 183.1132

EPHEMERIS_TYPE = 0
CLASSIFICATION_TYPE = U
NORAD_CAT_ID   = 270213
ELEMENT_SET_NO = 999
REV_AT_EPOCH   = 8646
BSTAR          = .20006566E-2
MEAN_MOTION_DOT = .7454E-4
MEAN_MOTION_DDOT = 0

CCSDS_OMM_VERS = 2.0
CREATION_DATE  = 
ORIGINATOR     = 

OBJECT_NAME    = UNKNOWN
OBJECT_ID      = 
CENTER_NAME    = EARTH
REF_FRAME      = TEME
TIME_SYSTEM    = UTC
MEAN_ELEMENT_THEORY = SGP/SGP4

EPOCH          = 2025-12-24T22:22:00.784992
MEAN_MOTION    = 13.98991864
ECCENTRICITY   = .00176392
INCLINATION    = 82.5483
RA_OF_ASC_NODE = 68.5756
ARG_OF_PERICENTER = 128.9641
MEAN_ANOMALY   = 231.3103

EPHEMERIS_TYPE = 0
CLASSIFICATION_TYPE = U
NORAD_CAT_ID   = 270215
ELEMENT_SET_NO = 999
REV_AT_EPOCH   = 30893
BSTAR          = .14267037E-2
MEAN_MOTION_DOT = .2078E-4
MEAN_MOTION_DDOT = 0

CCSDS_OMM_VERS = 2.0
CREATION_DATE  = 
ORIGINATOR     = 

OBJECT_NAME    = UNKNOWN
OBJECT_ID      = 
CENTER_NAME    = EARTH
REF_FRAME      = TEME
TIME_SYSTEM    = UTC
MEAN_ELEMENT_THEORY = SGP/SGP4

EPOCH          = 2025-12-23T07:18:42.109056
MEAN_MOTION    = 13.05980427
ECCENTRICITY   = .00321957
INCLINATION    = 90.3147
RA_OF_ASC_NODE = 11.8969
ARG_OF_PERICENTER = 224.7578
MEAN_ANOMALY   = 135.0949

EPHEMERIS_TYPE = 0
CLASSIFICATION_TYPE = U
NORAD_CAT_ID   = 270216
ELEMENT_SET_NO = 999
REV_AT_EPOCH   = 28561
BSTAR          = -.19487473E-2
MEAN_MOTION_DOT = -.633E-5
MEAN_MOTION_DDOT = 0

CCSDS_OMM_VERS = 2.0
CREATION_DATE  = 
ORIGINATOR     = 

OBJECT_NAME    = UNKNOWN
OBJECT_ID      = 
CENTER_NAME    = EARTH
REF_FRAME      = TEME
TIME_SYSTEM    = UTC
MEAN_ELEMENT_THEORY = SGP/SGP4

EPOCH          = 2025-12-28T14:33:15.075936
MEAN_MOTION    = 12.11726622
ECCENTRICITY   = .08635048
INCLINATION    = 83.3290
RA_OF_ASC_NODE = 119.7127
ARG_OF_PERICENTER = 110.7821
MEAN_ANOMALY   = 258.7877

EPHEMERIS_TYPE = 0
CLASSIFICATION_TYPE = U
NORAD_CAT_ID   = 270217
ELEMENT_SET_NO = 999
REV_AT_EPOCH   = 26857
BSTAR          = -.21868596E-2
MEAN_MOTION_DOT = -.628E-5
MEAN_MOTION_DDOT = 0

CCSDS_OMM_VERS = 2.0
CREATION_DATE  = 
ORIGINATOR     = 

OBJECT_NAME    = UNKNOWN
OBJECT_ID      = 
CENTER_NAME    = EARTH
REF_FRAME      = TEME
TIME_SYSTEM    = UTC
MEAN_ELEMENT_THEORY = SGP/SGP4

EPOCH          = 2025-12-27T04:30:15.273792
MEAN_MOTION    = 13.59053379
ECCENTRICITY   = .05056707
INCLINATION    = 98.8544
RA_OF_ASC_NODE = 157.6038
ARG_OF_PERICENTER = 183.1576
MEAN_ANOMALY   = 176.6335

EPHEMERIS_TYPE = 0
CLASSIFICATION_TYPE = U
NORAD_CAT_ID   = 270218
ELEMENT_SET_NO = 999
REV_AT_EPOCH   = 29239
BSTAR          = .51404725E-2
MEAN_MOTION_DOT = .8779E-4
MEAN_MOTION_DDOT = 0

